OBJECT_NAME,OBJECT_ID,EPOCH,MEAN_MOTION,ECCENTRICITY,INCLINATION,RA_OF_ASC_NODE,ARG_OF_PERICENTER,MEAN_ANOMALY,EPHEMERIS_TYPE,CLASSIFICATION_TYPE,NORAD_CAT_ID,ELEMENT_SET_NO,REV_AT_EPOCH,BSTAR,MEAN_MOTION_DOT,MEAN_MOTION_DDOT
STARLINK-3793,2022-045BB,2026-06-23T23:09:07.983936,15.12195394,.00023637,53.1617,61.8822,150.1028,210.0100,0,U,52380,999,23210,.21859815E-2,.38077E-3,0
STARLINK-3799,2022-045BD,2026-06-25T20:52:57.270720,15.33817933,.0001889,53.2145,55.4829,131.5690,228.5475,0,U,52382,999,23237,.21084E-2,.70214E-3,0
STARLINK-3811,2022-045BE,2026-06-24T00:00:43.170624,15.09684740,.0009364,53.1601,61.7473,104.5985,255.6046,0,U,52383,999,23211,.32532665E-2,.53146E-3,0
STARLINK-3909,2022-049B,2026-06-25T18:15:07.982784,15.08844661,.0001056,53.1596,303.6957,81.3880,278.7231,0,U,52452,999,22842,-.74667E-4,-.1476E-4,0
STARLINK-3872,2022-049C,2026-06-25T14:37:53.247648,15.08835798,.0001198,53.1604,304.5007,83.0948,277.0179,0,U,52453,999,22840,.13767E-3,.1904E-4,0
STARLINK-3888,2022-049D,2026-06-25T16:18:34.004736,15.08835366,.0001104,53.1602,304.1841,85.2428,274.8690,0,U,52454,999,22841,.35252E-4,.273E-5,0
STARLINK-3890,2022-049E,2026-06-25T16:09:21.130272,15.08835738,.0001199,53.1601,304.2165,88.9742,271.1387,0,U,52455,999,22841,.25171E-4,.113E-5,0
STARLINK-3896,2022-049F,2026-06-25T17:39:26.430048,15.08809964,.0001139,53.1599,303.9352,91.0790,269.0332,0,U,52456,999,22842,.44396E-3,.6779E-4,0
STARLINK-3899,2022-049G,2026-06-25T17:32:45.351744,15.08857638,.0001073,53.1610,303.9461,99.3053,260.8060,0,U,52457,999,22842,-.2205E-3,-.3797E-4,0
STARLINK-3898,2022-049H,2026-06-25T17:28:51.509280,15.08825999,.0001635,53.1604,303.9671,94.9712,265.1466,0,U,52458,999,22842,.15589E-3,.2193E-4,0
STARLINK-3856,2022-049J,2026-06-25T15:32:11.984352,15.08839260,.0001246,53.1600,294.3308,83.7748,276.3386,0,U,52459,999,22854,.13389E-4,-.75E-6,0
STARLINK-3900,2022-049L,2026-06-25T13:52:49.944576,15.08839200,.0001116,53.1591,284.6408,93.3169,266.7950,0,U,52461,999,22867,.26324E-4,.131E-5,0
STARLINK-3903,2022-049M,2026-06-25T16:58:22.103328,15.08830878,.0000864,53.1584,294.0730,96.5502,263.5588,0,U,52462,999,22855,.10313E-4,-.124E-5,0
STARLINK-3885,2022-049N,2026-06-25T16:58:18.142752,15.08850538,.0000939,53.1588,284.0639,74.6885,285.4210,0,U,52463,999,22869,-.1861E-3,-.3249E-4,0
STARLINK-3904,2022-049P,2026-06-25T17:02:17.202048,15.08845117,.0001125,53.1607,294.0502,84.0890,276.0230,0,U,52464,999,22855,-.9347E-4,-.1775E-4,0
STARLINK-3863,2022-049Q,2026-06-25T13:42:14.406912,15.08834744,.0001176,53.1598,284.6748,86.9896,273.1230,0,U,52465,999,22867,.353E-4,.274E-5,0
STARLINK-3873,2022-049S,2026-06-25T16:51:41.412960,15.08828756,.0000989,53.1608,294.0826,95.9592,264.1512,0,U,52467,999,22855,.45561E-4,.437E-5,0
STARLINK-3864,2022-049T,2026-06-25T14:55:07.061664,15.08822281,.0000826,53.1584,294.4467,76.4163,283.6921,0,U,52468,999,22854,-.31249E-4,-.785E-5,0
STARLINK-3828,2022-049U,2026-06-25T15:05:43.630080,15.08867882,.0000839,53.1598,294.4224,104.0807,256.0278,0,U,52469,999,22854,-.66045E-3,-.10792E-3,0
STARLINK-3859,2022-049V,2026-06-25T17:55:16.260672,15.08845729,.0001449,53.1590,293.8829,95.2732,264.8424,0,U,52470,999,22856,-.1367E-3,-.2463E-4,0
STARLINK-3862,2022-049W,2026-06-25T20:00:01.999008,15.23171841,.0000608,53.1592,293.0393,114.1326,172.7621,0,U,52471,999,583,.50279E-1,.132352E-1,0
STARLINK-3881,2022-049X,2026-06-25T14:39:12.340800,15.08842259,.0001265,53.1598,294.4969,88.0619,272.0518,0,U,52472,999,22854,-.64023E-4,-.1307E-4,0
STARLINK-3879,2022-049Y,2026-06-25T14:49:48.228384,15.08831931,.0001054,53.1585,294.4611,86.5308,273.5804,0,U,52473,999,22854,.35143E-4,.271E-5,0
STARLINK-3882,2022-049AA,2026-06-25T16:46:26.071104,15.08828400,.0000991,53.1597,294.3203,77.4196,282.6906,0,U,52475,999,22855,.33403E-4,.244E-5,0
STARLINK-3835,2022-049AB,2026-06-25T13:59:33.563040,15.08836662,.0001177,53.1592,284.8619,88.7379,271.3747,0,U,52476,999,22991,.73322E-5,-.171E-5,0
STARLINK-3860,2022-049AC,2026-06-25T13:36:56.539584,15.08835359,.0001215,53.1599,284.6904,89.2740,270.8391,0,U,52477,999,22991,.25266E-4,.114E-5,0
STARLINK-3825,2022-049AD,2026-06-25T17:39:22.477248,15.08838450,.0001329,53.1593,293.9325,91.6220,268.4923,0,U,52478,999,22980,.41265E-4,.369E-5,0
STARLINK-3878,2022-049AE,2026-06-25T18:01:54.376320,15.08832851,.0001009,53.1591,283.8643,92.9701,267.1406,0,U,52479,999,22994,.28611E-4,.167E-5,0
STARLINK-3839,2022-049AF,2026-06-25T17:34:05.649312,15.08824299,.0000831,53.1609,293.9508,80.3552,279.7533,0,U,52480,999,22856,-.85007E-4,-.164E-4,0
STARLINK-3813,2022-049AH,2026-06-25T16:15:55.151424,15.08836400,.000098,53.1588,284.1956,90.2881,269.8223,0,U,52482,999,22869,.28612E-4,.168E-5,0
