STARLINK-3793           
1 52380U 22045BB  26174.96467574  .00038077  00000+0  21860-2 0  9992
2 52380  53.1617  61.8822 0002363 150.1028 210.0100 15.12195394232103
STARLINK-3799           
1 52382U 22045BD  26176.87010730  .00070214  00000+0  21084-2 0  9991
2 52382  53.2145  55.4829 0001889 131.5690 228.5475 15.33817933232379
STARLINK-3811           
1 52383U 22045BE  26175.00049966  .00053146  00000+0  32533-2 0  9995
2 52383  53.1601  61.7473 0009364 104.5985 255.6046 15.09684740232112
STARLINK-3909           
1 52452U 22049B   26176.76050906 -.00001476  00000+0 -74667-4 0  9993
2 52452  53.1596 303.6957 0001056  81.3880 278.7231 15.08844661228423
STARLINK-3872           
1 52453U 22049C   26176.60964407  .00001904  00000+0  13767-3 0  9994
2 52453  53.1604 304.5007 0001198  83.0948 277.0179 15.08835798228403
STARLINK-3888           
1 52454U 22049D   26176.67956024  .00000273  00000+0  35252-4 0  9990
2 52454  53.1602 304.1841 0001104  85.2428 274.8690 15.08835366228413
STARLINK-3890           
1 52455U 22049E   26176.67316123  .00000113  00000+0  25171-4 0  9993
2 52455  53.1601 304.2165 0001199  88.9742 271.1387 15.08835738228412
STARLINK-3896           
1 52456U 22049F   26176.73572257  .00006779  00000+0  44396-3 0  9996
2 52456  53.1599 303.9352 0001139  91.0790 269.0332 15.08809964228424
STARLINK-3899           
1 52457U 22049G   26176.73108046 -.00003797  00000+0 -22050-3 0  9990
2 52457  53.1610 303.9461 0001073  99.3053 260.8060 15.08857638228428
STARLINK-3898           
1 52458U 22049H   26176.72837395  .00002193  00000+0  15589-3 0  9992
2 52458  53.1604 303.9671 0001635  94.9712 265.1466 15.08825999228425
STARLINK-3856           
1 52459U 22049J   26176.64736093 -.00000075  00000+0  13389-4 0  9992
2 52459  53.1600 294.3308 0001246  83.7748 276.3386 15.08839260228549
STARLINK-3900           
1 52461U 22049L   26176.57835584  .00000131  00000+0  26324-4 0  9997
2 52461  53.1591 284.6408 0001116  93.3169 266.7950 15.08839200228672
STARLINK-3903           
1 52462U 22049M   26176.70720027 -.00000124  00000+0  10313-4 0  9992
2 52462  53.1584 294.0730 0000864  96.5502 263.5588 15.08830878228554
STARLINK-3885           
1 52463U 22049N   26176.70715443 -.00003249  00000+0 -18610-3 0  9998
2 52463  53.1588 284.0639 0000939  74.6885 285.4210 15.08850538228695
STARLINK-3904           
1 52464U 22049P   26176.70992132 -.00001775  00000+0 -93470-4 0  9991
2 52464  53.1607 294.0502 0001125  84.0890 276.0230 15.08845117228557
STARLINK-3863           
1 52465U 22049Q   26176.57100008  .00000274  00000+0  35300-4 0  9999
2 52465  53.1598 284.6748 0001176  86.9896 273.1230 15.08834744228672
STARLINK-3873           
1 52467U 22049S   26176.70256265  .00000437  00000+0  45561-4 0  9994
2 52467  53.1608 294.0826 0000989  95.9592 264.1512 15.08828756228558
STARLINK-3864           
1 52468U 22049T   26176.62160951 -.00000785  00000+0 -31249-4 0  9998
2 52468  53.1584 294.4467 0000826  76.4163 283.6921 15.08822281228541
STARLINK-3828           
1 52469U 22049U   26176.62897720 -.00010792  00000+0 -66045-3 0  9990
2 52469  53.1598 294.4224 0000839 104.0807 256.0278 15.08867882228540
STARLINK-3859           
1 52470U 22049V   26176.74671598 -.00002463  00000+0 -13670-3 0  9990
2 52470  53.1590 293.8829 0001449  95.2732 264.8424 15.08845729228562
STARLINK-3862           
1 52471U 22049W   26176.83335647  .01323520  00000+0  50279-1 0  9996
2 52471  53.1592 293.0393 0000608 114.1326 172.7621 15.23171841  5832
STARLINK-3881           
1 52472U 22049X   26176.61055950 -.00001307  00000+0 -64023-4 0  9991
2 52472  53.1598 294.4969 0001265  88.0619 272.0518 15.08842259228542
STARLINK-3879           
1 52473U 22049Y   26176.61791931  .00000271  00000+0  35143-4 0  9996
2 52473  53.1585 294.4611 0001054  86.5308 273.5804 15.08831931228546
STARLINK-3882           
1 52475U 22049AA  26176.69891286  .00000244  00000+0  33403-4 0  9997
2 52475  53.1597 294.3203 0000991  77.4196 282.6906 15.08828400228552
STARLINK-3835           
1 52476U 22049AB  26176.58302735 -.00000171  00000+0  73322-5 0  9997
2 52476  53.1592 284.8619 0001177  88.7379 271.3747 15.08836662229916
STARLINK-3860           
1 52477U 22049AC  26176.56732106  .00000114  00000+0  25266-4 0  9994
2 52477  53.1599 284.6904 0001215  89.2740 270.8391 15.08835359229911
STARLINK-3825           
1 52478U 22049AD  26176.73567682  .00000369  00000+0  41265-4 0  9998
2 52478  53.1593 293.9325 0001329  91.6220 268.4923 15.08838450229809
STARLINK-3878           
1 52479U 22049AE  26176.75132380  .00000167  00000+0  28611-4 0  9990
2 52479  53.1591 283.8643 0001009  92.9701 267.1406 15.08832851229948
STARLINK-3839           
1 52480U 22049AF  26176.73200983 -.00001640  00000+0 -85007-4 0  9996
2 52480  53.1609 293.9508 0000831  80.3552 279.7533 15.08824299228563
STARLINK-3813           
1 52482U 22049AH  26176.67772166  .00000168  00000+0  28612-4 0  9999
2 52482  53.1588 284.1956 0000980  90.2881 269.8223 15.08836400228697
